{
  "type": "FeatureCollection",
  "features": [
    {
      "type": "Feature",
      "properties": {
        "norad_id": 28899,
        "name": "INMARSAT 4-F2 (SOUTHPAN/PRN 122)",
        "group": "gnss",
        "lat": -0.6777197466529752,
        "lon": 35.51340885075994,
        "alt_km": 35795.49959230983,
        "timestamp": "2025-12-09T11:33:55.040827+00:00",
        "meta_object_name": "INMARSAT 4-F2 (SOUTHPAN/PRN 122)",
        "meta_object_id": "2005-044A",
        "meta_epoch": "2025-12-08T22:50:48.373728",
        "meta_mean_motion": 1.00272355,
        "meta_eccentricity": 0.0003199,
        "meta_inclination": 4.8474,
        "meta_ra_of_asc_node": 43.6797,
        "meta_arg_of_pericenter": 217.6913,
        "meta_mean_anomaly": 302.7876,
        "meta_ephemeris_type": 0,
        "meta_classification_type": "U",
        "meta_norad_cat_id": 28899,
        "meta_element_set_no": 999,
        "meta_rev_at_epoch": 7361,
        "meta_bstar": 0,
        "meta_mean_motion_dot": -2.6e-06,
        "meta_mean_motion_ddot": 0,
        "tle_line1": "1 28899U 05044A   25342.95194877 -.00000260  00000+0  00000+0 0  9992",
        "tle_line2": "2 28899   4.8474  43.6797 0003199 217.6913 302.7876  1.00272355 73617"
      },
      "geometry": {
        "type": "Point",
        "coordinates": [
          35.51340885075994,
          -0.6777197466529752
        ]
      }
    },
    {
      "type": "Feature",
      "properties": {
        "norad_id": 29486,
        "name": "GPS BIIRM-2 (PRN 31)",
        "group": "gnss",
        "lat": -31.02290348308726,
        "lon": 133.6288969120786,
        "alt_km": 20189.17368336025,
        "timestamp": "2025-12-09T11:33:55.040840+00:00",
        "meta_object_name": "GPS BIIRM-2 (PRN 31)",
        "meta_object_id": "2006-042A",
        "meta_epoch": "2025-12-08T13:17:33.123840",
        "meta_mean_motion": 2.00554246,
        "meta_eccentricity": 0.0107364,
        "meta_inclination": 54.6936,
        "meta_ra_of_asc_node": 158.9068,
        "meta_arg_of_pericenter": 51.8598,
        "meta_mean_anomaly": 320.1374,
        "meta_ephemeris_type": 0,
        "meta_classification_type": "U",
        "meta_norad_cat_id": 29486,
        "meta_element_set_no": 999,
        "meta_rev_at_epoch": 14057,
        "meta_bstar": 0,
        "meta_mean_motion_dot": 6e-07,
        "meta_mean_motion_ddot": 0,
        "tle_line1": "1 29486U 06042A   25342.55385560  .00000060  00000+0  00000+0 0  9998",
        "tle_line2": "2 29486  54.6936 158.9068 0107364  51.8598 320.1374  2.00554246140573"
      },
      "geometry": {
        "type": "Point",
        "coordinates": [
          133.6288969120786,
          -31.02290348308726
        ]
      }
    },
    {
      "type": "Feature",
      "properties": {
        "norad_id": 29601,
        "name": "GPS BIIRM-3 (PRN 12)",
        "group": "gnss",
        "lat": 15.0418525179412,
        "lon": -127.60585631796555,
        "alt_km": 20093.94442210181,
        "timestamp": "2025-12-09T11:33:55.040852+00:00",
        "meta_object_name": "GPS BIIRM-3 (PRN 12)",
        "meta_object_id": "2006-052A",
        "meta_epoch": "2025-12-08T22:59:17.693952",
        "meta_mean_motion": 2.00573216,
        "meta_eccentricity": 0.0087724,
        "meta_inclination": 54.9712,
        "meta_ra_of_asc_node": 221.5484,
        "meta_arg_of_pericenter": 87.3982,
        "meta_mean_anomaly": 273.6876,
        "meta_ephemeris_type": 0,
        "meta_classification_type": "U",
        "meta_norad_cat_id": 29601,
        "meta_element_set_no": 999,
        "meta_rev_at_epoch": 13959,
        "meta_bstar": 0,
        "meta_mean_motion_dot": 1e-07,
        "meta_mean_motion_ddot": 0,
        "tle_line1": "1 29601U 06052A   25342.95784368  .00000010  00000+0  00000+0 0  9996",
        "tle_line2": "2 29601  54.9712 221.5484 0087724  87.3982 273.6876  2.00573216139591"
      },
      "geometry": {
        "type": "Point",
        "coordinates": [
          -127.60585631796555,
          15.0418525179412
        ]
      }
    },
    {
      "type": "Feature",
      "properties": {
        "norad_id": 32260,
        "name": "GPS BIIRM-4 (PRN 15)",
        "group": "gnss",
        "lat": 14.918061701332077,
        "lon": -103.28183305825767,
        "alt_km": 20069.882482482797,
        "timestamp": "2025-12-09T11:33:55.040864+00:00",
        "meta_object_name": "GPS BIIRM-4 (PRN 15)",
        "meta_object_id": "2007-047A",
        "meta_epoch": "2025-12-07T18:25:34.370688",
        "meta_mean_motion": 2.00564615,
        "meta_eccentricity": 0.01643014,
        "meta_inclination": 53.9519,
        "meta_ra_of_asc_node": 87.9639,
        "meta_arg_of_pericenter": 85.1876,
        "meta_mean_anomaly": 276.6737,
        "meta_ephemeris_type": 0,
        "meta_classification_type": "U",
        "meta_norad_cat_id": 32260,
        "meta_element_set_no": 999,
        "meta_rev_at_epoch": 13297,
        "meta_bstar": 0,
        "meta_mean_motion_dot": -1.8e-07,
        "meta_mean_motion_ddot": 0,
        "tle_line1": "1 32260U 07047A   25341.76775892 -.00000018  00000+0  00000+0 0  9995",
        "tle_line2": "2 32260  53.9519  87.9639 0164301  85.1876 276.6737  2.00564615132978"
      },
      "geometry": {
        "type": "Point",
        "coordinates": [
          -103.28183305825767,
          14.918061701332077
        ]
      }
    },
    {
      "type": "Feature",
      "properties": {
        "norad_id": 32275,
        "name": "COSMOS 2433 (720)",
        "group": "gnss",
        "lat": 57.410544477501524,
        "lon": 97.30338880494075,
        "alt_km": 19134.233668990753,
        "timestamp": "2025-12-09T11:33:55.040876+00:00",
        "meta_object_name": "COSMOS 2433 (720)",
        "meta_object_id": "2007-052A",
        "meta_epoch": "2025-12-07T22:15:39.436992",
        "meta_mean_motion": 2.13103936,
        "meta_eccentricity": 0.00054366,
        "meta_inclination": 65.6859,
        "meta_ra_of_asc_node": 322.3673,
        "meta_arg_of_pericenter": 253.7081,
        "meta_mean_anomaly": 106.2283,
        "meta_ephemeris_type": 0,
        "meta_classification_type": "U",
        "meta_norad_cat_id": 32275,
        "meta_element_set_no": 999,
        "meta_rev_at_epoch": 14098,
        "meta_bstar": 0,
        "meta_mean_motion_dot": -4.9e-07,
        "meta_mean_motion_ddot": 0,
        "tle_line1": "1 32275U 07052A   25341.92753978 -.00000049  00000+0  00000+0 0  9990",
        "tle_line2": "2 32275  65.6859 322.3673 0005436 253.7081 106.2283  2.13103936140982"
      },
      "geometry": {
        "type": "Point",
        "coordinates": [
          97.30338880494075,
          57.410544477501524
        ]
      }
    },
    {
      "type": "Feature",
      "properties": {
        "norad_id": 32276,
        "name": "COSMOS 2432 (719)",
        "group": "gnss",
        "lat": 49.841388403173106,
        "lon": -5.206751678617497,
        "alt_km": 19131.968321855165,
        "timestamp": "2025-12-09T11:33:55.040889+00:00",
        "meta_object_name": "COSMOS 2432 (719)",
        "meta_object_id": "2007-052B",
        "meta_epoch": "2025-12-09T01:26:40.433280",
        "meta_mean_motion": 2.13102951,
        "meta_eccentricity": 0.0011254,
        "meta_inclination": 65.7012,
        "meta_ra_of_asc_node": 322.4539,
        "meta_arg_of_pericenter": 311.2818,
        "meta_mean_anomaly": 142.0612,
        "meta_ephemeris_type": 0,
        "meta_classification_type": "U",
        "meta_norad_cat_id": 32276,
        "meta_element_set_no": 999,
        "meta_rev_at_epoch": 14103,
        "meta_bstar": 0,
        "meta_mean_motion_dot": -4.9e-07,
        "meta_mean_motion_ddot": 0,
        "tle_line1": "1 32276U 07052B   25343.06019020 -.00000049  00000+0  00000+0 0  9991",
        "tle_line2": "2 32276  65.7012 322.4539 0011254 311.2818 142.0612  2.13102951141037"
      },
      "geometry": {
        "type": "Point",
        "coordinates": [
          -5.206751678617497,
          49.841388403173106
        ]
      }
    },
    {
      "type": "Feature",
      "properties": {
        "norad_id": 32384,
        "name": "GPS BIIRM-5 (PRN 29)",
        "group": "gnss",
        "lat": -50.955599823514774,
        "lon": -137.20531936013907,
        "alt_km": 20237.321511782677,
        "timestamp": "2025-12-09T11:33:55.040900+00:00",
        "meta_object_name": "GPS BIIRM-5 (PRN 29)",
        "meta_object_id": "2007-062A",
        "meta_epoch": "2025-12-09T04:27:19.804032",
        "meta_mean_motion": 2.00577042,
        "meta_eccentricity": 0.0032222,
        "meta_inclination": 55.1854,
        "meta_ra_of_asc_node": 281.7885,
        "meta_arg_of_pericenter": 162.5723,
        "meta_mean_anomaly": 272.1574,
        "meta_ephemeris_type": 0,
        "meta_classification_type": "U",
        "meta_norad_cat_id": 32384,
        "meta_element_set_no": 999,
        "meta_rev_at_epoch": 13170,
        "meta_bstar": 0,
        "meta_mean_motion_dot": -5.2e-07,
        "meta_mean_motion_ddot": 0,
        "tle_line1": "1 32384U 07062A   25343.18564588 -.00000052  00000+0  00000+0 0  9993",
        "tle_line2": "2 32384  55.1854 281.7885 0032222 162.5723 272.1574  2.00577042131703"
      },
      "geometry": {
        "type": "Point",
        "coordinates": [
          -137.20531936013907,
          -50.955599823514774
        ]
      }
    }
  ]
}